[{"OBJECT_NAME":"ONEWEB-0568","OBJECT_ID":"2023-043S","EPOCH":"2026-03-04T01:25:09.909408","MEAN_MOTION":13.16587287,"ECCENTRICITY":0.0001475,"INCLINATION":87.9005,"RA_OF_ASC_NODE":249.6853,"ARG_OF_PERICENTER":80.1626,"MEAN_ANOMALY":279.9672,"EPHEMERIS_TYPE":0,"CLASSIFICATION_TYPE":"U","NORAD_CAT_ID":56062,"ELEMENT_SET_NO":999,"REV_AT_EPOCH":14514,"BSTAR":0.002681,"MEAN_MOTION_DOT":1.038e-5,"MEAN_MOTION_DDOT":0},{"OBJECT_NAME":"ONEWEB-0574","OBJECT_ID":"2023-043T","EPOCH":"2026-03-04T01:11:44.944800","MEAN_MOTION":13.21824893,"ECCENTRICITY":0.0001448,"INCLINATION":87.9176,"RA_OF_ASC_NODE":264.9323,"ARG_OF_PERICENTER":87.794,"MEAN_ANOMALY":272.3359,"EPHEMERIS_TYPE":0,"CLASSIFICATION_TYPE":"U","NORAD_CAT_ID":56063,"ELEMENT_SET_NO":999,"REV_AT_EPOCH":14438,"BSTAR":0.00020818,"MEAN_MOTION_DOT":9.9e-7,"MEAN_MOTION_DDOT":0},{"OBJECT_NAME":"ONEWEB-0575","OBJECT_ID":"2023-043U","EPOCH":"2026-03-04T01:16:01.654752","MEAN_MOTION":13.165936,"ECCENTRICITY":0.000128,"INCLINATION":87.8998,"RA_OF_ASC_NODE":249.6836,"ARG_OF_PERICENTER":80.827,"MEAN_ANOMALY":279.3005,"EPHEMERIS_TYPE":0,"CLASSIFICATION_TYPE":"U","NORAD_CAT_ID":56064,"ELEMENT_SET_NO":999,"REV_AT_EPOCH":14513,"BSTAR":4.4161e-5,"MEAN_MOTION_DOT":3.0e-7,"MEAN_MOTION_DDOT":0},{"OBJECT_NAME":"ONEWEB-0576","OBJECT_ID":"2023-043V","EPOCH":"2026-03-04T00:48:40.342464","MEAN_MOTION":13.16593109,"ECCENTRICITY":0.0001398,"INCLINATION":87.9002,"RA_OF_ASC_NODE":249.6912,"ARG_OF_PERICENTER":87.1481,"MEAN_ANOMALY":272.9809,"EPHEMERIS_TYPE":0,"CLASSIFICATION_TYPE":"U","NORAD_CAT_ID":56065,"ELEMENT_SET_NO":999,"REV_AT_EPOCH":14512,"BSTAR":0.00018774,"MEAN_MOTION_DOT":8.5e-7,"MEAN_MOTION_DDOT":0},{"OBJECT_NAME":"ONEWEB-0577","OBJECT_ID":"2023-043W","EPOCH":"2026-03-04T00:57:47.454912","MEAN_MOTION":13.16592952,"ECCENTRICITY":8.4e-5,"INCLINATION":87.9003,"RA_OF_ASC_NODE":249.6889,"ARG_OF_PERICENTER":78.2192,"MEAN_ANOMALY":281.9033,"EPHEMERIS_TYPE":0,"CLASSIFICATION_TYPE":"U","NORAD_CAT_ID":56066,"ELEMENT_SET_NO":999,"REV_AT_EPOCH":14515,"BSTAR":0.00024693,"MEAN_MOTION_DOT":1.07e-6,"MEAN_MOTION_DDOT":0},{"OBJECT_NAME":"ONEWEB-0578","OBJECT_ID":"2023-043X","EPOCH":"2026-03-04T00:52:46.216128","MEAN_MOTION":13.21826918,"ECCENTRICITY":0.00017,"INCLINATION":87.9167,"RA_OF_ASC_NODE":264.9417,"ARG_OF_PERICENTER":80.3489,"MEAN_ANOMALY":279.7837,"EPHEMERIS_TYPE":0,"CLASSIFICATION_TYPE":"U","NORAD_CAT_ID":56067,"ELEMENT_SET_NO":999,"REV_AT_EPOCH":14434,"BSTAR":0.00015066,"MEAN_MOTION_DOT":7.5e-7,"MEAN_MOTION_DDOT":0},{"OBJECT_NAME":"ONEWEB-0579","OBJECT_ID":"2023-043Y","EPOCH":"2026-03-04T02:27:34.273728","MEAN_MOTION":13.21826264,"ECCENTRICITY":0.0001586,"INCLINATION":87.9174,"RA_OF_ASC_NODE":264.9186,"ARG_OF_PERICENTER":100.8355,"MEAN_ANOMALY":259.2957,"EPHEMERIS_TYPE":0,"CLASSIFICATION_TYPE":"U","NORAD_CAT_ID":56068,"ELEMENT_SET_NO":999,"REV_AT_EPOCH":14436,"BSTAR":-5.4438e-5,"MEAN_MOTION_DOT":-9.0e-8,"MEAN_MOTION_DDOT":0},{"OBJECT_NAME":"ONEWEB-0581","OBJECT_ID":"2023-043Z","EPOCH":"2026-03-04T01:06:55.115136","MEAN_MOTION":13.16593831,"ECCENTRICITY":0.0001009,"INCLINATION":87.9001,"RA_OF_ASC_NODE":249.699,"ARG_OF_PERICENTER":87.6869,"MEAN_ANOMALY":272.4377,"EPHEMERIS_TYPE":0,"CLASSIFICATION_TYPE":"U","NORAD_CAT_ID":56069,"ELEMENT_SET_NO":999,"REV_AT_EPOCH":14512,"BSTAR":3.2494e-5,"MEAN_MOTION_DOT":2.5e-7,"MEAN_MOTION_DDOT":0},{"OBJECT_NAME":"ONEWEB-0609","OBJECT_ID":"2023-043AA","EPOCH":"2026-03-04T03:33:57.648960","MEAN_MOTION":13.15547689,"ECCENTRICITY":0.0001659,"INCLINATION":87.8945,"RA_OF_ASC_NODE":280.191,"ARG_OF_PERICENTER":88.402,"MEAN_ANOMALY":271.73,"EPHEMERIS_TYPE":0,"CLASSIFICATION_TYPE":"U","NORAD_CAT_ID":56070,"ELEMENT_SET_NO":999,"REV_AT_EPOCH":14262,"BSTAR":6.0649e-5,"MEAN_MOTION_DOT":3.6e-7,"MEAN_MOTION_DDOT":0},{"OBJECT_NAME":"ONEWEB-0613","OBJECT_ID":"2023-043AB","EPOCH":"2026-03-04T03:27:07.083936","MEAN_MOTION":13.15547751,"ECCENTRICITY":0.0001644,"INCLINATION":87.8945,"RA_OF_ASC_NODE":280.2026,"ARG_OF_PERICENTER":96.85,"MEAN_ANOMALY":263.2817,"EPHEMERIS_TYPE":0,"CLASSIFICATION_TYPE":"U","NORAD_CAT_ID":56071,"ELEMENT_SET_NO":999,"REV_AT_EPOCH":14262,"BSTAR":0.00014229,"MEAN_MOTION_DOT":6.6e-7,"MEAN_MOTION_DDOT":0},{"OBJECT_NAME":"ONEWEB-0630","OBJECT_ID":"2023-043AC","EPOCH":"2026-03-04T03:20:16.503360","MEAN_MOTION":13.15547952,"ECCENTRICITY":0.0001595,"INCLINATION":87.8941,"RA_OF_ASC_NODE":280.1734,"ARG_OF_PERICENTER":96.9493,"MEAN_ANOMALY":263.1818,"EPHEMERIS_TYPE":0,"CLASSIFICATION_TYPE":"U","NORAD_CAT_ID":56072,"ELEMENT_SET_NO":999,"REV_AT_EPOCH":14261,"BSTAR":0.00027869,"MEAN_MOTION_DOT":1.18e-6,"MEAN_MOTION_DDOT":0},{"OBJECT_NAME":"ONEWEB-0632","OBJECT_ID":"2023-043AD","EPOCH":"2026-03-04T03:13:25.665312","MEAN_MOTION":13.15547408,"ECCENTRICITY":0.0001352,"INCLINATION":87.8943,"RA_OF_ASC_NODE":280.1919,"ARG_OF_PERICENTER":87.1217,"MEAN_ANOMALY":273.0068,"EPHEMERIS_TYPE":0,"CLASSIFICATION_TYPE":"U","NORAD_CAT_ID":56073,"ELEMENT_SET_NO":999,"REV_AT_EPOCH":14261,"BSTAR":0.00053911,"MEAN_MOTION_DOT":2.16e-6,"MEAN_MOTION_DDOT":0},{"OBJECT_NAME":"ONEWEB-0633","OBJECT_ID":"2023-043AE","EPOCH":"2026-03-04T03:04:18.044832","MEAN_MOTION":13.15547388,"ECCENTRICITY":0.0001851,"INCLINATION":87.8955,"RA_OF_ASC_NODE":280.1598,"ARG_OF_PERICENTER":99.991,"MEAN_ANOMALY":260.1429,"EPHEMERIS_TYPE":0,"CLASSIFICATION_TYPE":"U","NORAD_CAT_ID":56074,"ELEMENT_SET_NO":999,"REV_AT_EPOCH":14259,"BSTAR":0.00046346,"MEAN_MOTION_DOT":1.87e-6,"MEAN_MOTION_DDOT":0},{"OBJECT_NAME":"ONEWEB-0634","OBJECT_ID":"2023-043AF","EPOCH":"2026-03-04T02:43:45.814944","MEAN_MOTION":13.15547333,"ECCENTRICITY":0.0001875,"INCLINATION":87.8944,"RA_OF_ASC_NODE":280.2121,"ARG_OF_PERICENTER":84.1821,"MEAN_ANOMALY":275.9523,"EPHEMERIS_TYPE":0,"CLASSIFICATION_TYPE":"U","NORAD_CAT_ID":56075,"ELEMENT_SET_NO":999,"REV_AT_EPOCH":14258,"BSTAR":0.00034271,"MEAN_MOTION_DOT":1.42e-6,"MEAN_MOTION_DDOT":0},{"OBJECT_NAME":"ONEWEB-0635","OBJECT_ID":"2023-043AG","EPOCH":"2026-03-04T02:36:54.838656","MEAN_MOTION":13.15547676,"ECCENTRICITY":0.0001264,"INCLINATION":87.8951,"RA_OF_ASC_NODE":280.1667,"ARG_OF_PERICENTER":85.0995,"MEAN_ANOMALY":275.0279,"EPHEMERIS_TYPE":0,"CLASSIFICATION_TYPE":"U","NORAD_CAT_ID":56076,"ELEMENT_SET_NO":999,"REV_AT_EPOCH":14261,"BSTAR":0.00021698,"MEAN_MOTION_DOT":9.5e-7,"MEAN_MOTION_DDOT":0},{"OBJECT_NAME":"ONEWEB-0636","OBJECT_ID":"2023-043AH","EPOCH":"2026-03-04T02:25:30.418464","MEAN_MOTION":13.15547794,"ECCENTRICITY":0.0001348,"INCLINATION":87.8946,"RA_OF_ASC_NODE":280.1824,"ARG_OF_PERICENTER":84.8885,"MEAN_ANOMALY":275.2399,"EPHEMERIS_TYPE":0,"CLASSIFICATION_TYPE":"U","NORAD_CAT_ID":56077,"ELEMENT_SET_NO":999,"REV_AT_EPOCH":14259,"BSTAR":-6.686e-5,"MEAN_MOTION_DOT":-1.2e-7,"MEAN_MOTION_DDOT":0},{"OBJECT_NAME":"ONEWEB-0637","OBJECT_ID":"2023-043AJ","EPOCH":"2026-03-04T02:16:23.462400","MEAN_MOTION":13.1554805,"ECCENTRICITY":0.0001541,"INCLINATION":87.8946,"RA_OF_ASC_NODE":280.2012,"ARG_OF_PERICENTER":73.3917,"MEAN_ANOMALY":286.7382,"EPHEMERIS_TYPE":0,"CLASSIFICATION_TYPE":"U","NORAD_CAT_ID":56078,"ELEMENT_SET_NO":999,"REV_AT_EPOCH":14261,"BSTAR":-0.00011944,"MEAN_MOTION_DOT":-3.2e-7,"MEAN_MOTION_DDOT":0}]
