ONEWEB-0568             
1 56062U 23043S   26063.05914247  .00001038  00000+0  26810-2 0  9990
2 56062  87.9005 249.6853 0001475  80.1626 279.9672 13.16587287145142
ONEWEB-0574             
1 56063U 23043T   26063.04982575  .00000099  00000+0  20818-3 0  9998
2 56063  87.9176 264.9323 0001448  87.7940 272.3359 13.21824893144383
ONEWEB-0575             
1 56064U 23043U   26063.05279693  .00000030  00000+0  44161-4 0  9993
2 56064  87.8998 249.6836 0001280  80.8270 279.3005 13.16593600145130
ONEWEB-0576             
1 56065U 23043V   26063.03380026  .00000085  00000+0  18774-3 0  9995
2 56065  87.9002 249.6912 0001398  87.1481 272.9809 13.16593109145121
ONEWEB-0577             
1 56066U 23043W   26063.04013258  .00000107  00000+0  24693-3 0  9999
2 56066  87.9003 249.6889 0000840  78.2192 281.9033 13.16592952145154
ONEWEB-0578             
1 56067U 23043X   26063.03664602  .00000075  00000+0  15066-3 0  9992
2 56067  87.9167 264.9417 0001700  80.3489 279.7837 13.21826918144347
ONEWEB-0579             
1 56068U 23043Y   26063.10248002 -.00000009  00000+0 -54438-4 0  9999
2 56068  87.9174 264.9186 0001586 100.8355 259.2957 13.21826264144363
ONEWEB-0581             
1 56069U 23043Z   26063.04647124  .00000025  00000+0  32494-4 0  9995
2 56069  87.9001 249.6990 0001009  87.6869 272.4377 13.16593831145121
ONEWEB-0609             
1 56070U 23043AA  26063.14858390  .00000036  00000+0  60649-4 0  9992
2 56070  87.8945 280.1910 0001659  88.4020 271.7300 13.15547689142629
ONEWEB-0613             
1 56071U 23043AB  26063.14383199  .00000066  00000+0  14229-3 0  9998
2 56071  87.8945 280.2026 0001644  96.8500 263.2817 13.15547751142628
ONEWEB-0630             
1 56072U 23043AC  26063.13907990  .00000118  00000+0  27869-3 0  9991
2 56072  87.8941 280.1734 0001595  96.9493 263.1818 13.15547952142619
ONEWEB-0632             
1 56073U 23043AD  26063.13432483  .00000216  00000+0  53911-3 0  9998
2 56073  87.8943 280.1919 0001352  87.1217 273.0068 13.15547408142617
ONEWEB-0633             
1 56074U 23043AE  26063.12798663  .00000187  00000+0  46346-3 0  9994
2 56074  87.8955 280.1598 0001851  99.9910 260.1429 13.15547388142591
ONEWEB-0634             
1 56075U 23043AF  26063.11372471  .00000142  00000+0  34271-3 0  9994
2 56075  87.8944 280.2121 0001875  84.1821 275.9523 13.15547333142584
ONEWEB-0635             
1 56076U 23043AG  26063.10896804  .00000095  00000+0  21698-3 0  9991
2 56076  87.8951 280.1667 0001264  85.0995 275.0279 13.15547676142614
ONEWEB-0636             
1 56077U 23043AH  26063.10104651 -.00000012  00000+0 -66860-4 0  9996
2 56077  87.8946 280.1824 0001348  84.8885 275.2399 13.15547794142595
ONEWEB-0637             
1 56078U 23043AJ  26063.09471600 -.00000032  00000+0 -11944-3 0  9990
2 56078  87.8946 280.2012 0001541  73.3917 286.7382 13.15548050142618
